OBJECT_NAME,OBJECT_ID,EPOCH,MEAN_MOTION,ECCENTRICITY,INCLINATION,RA_OF_ASC_NODE,ARG_OF_PERICENTER,MEAN_ANOMALY,EPHEMERIS_TYPE,CLASSIFICATION_TYPE,NORAD_CAT_ID,ELEMENT_SET_NO,REV_AT_EPOCH,BSTAR,MEAN_MOTION_DOT,MEAN_MOTION_DDOT
IRIDIUM 138,2017-083B,2026-06-14T12:37:03.091872,14.34218323,.0002337,86.3976,322.8235,86.7921,273.3542,0,U,43071,999,44375,.13445E-4,.57E-6,0
IRIDIUM 116,2017-083C,2026-06-14T11:51:23.114592,14.34217935,.0001929,86.3960,323.1275,97.3782,262.7633,0,U,43072,999,44378,.9766E-5,.47E-6,0
IRIDIUM 130,2017-083D,2026-06-14T11:05:43.116576,14.34217299,.000182,86.3966,323.4159,90.9495,269.1910,0,U,43073,999,44372,-.12655E-4,-.16E-6,0
IRIDIUM 151,2017-083E,2026-06-14T12:09:39.177216,14.34217655,.0002143,86.3963,323.1799,92.2565,267.8876,0,U,43074,999,44375,-.34933E-6,.19E-6,0
IRIDIUM 134,2017-083F,2026-06-14T11:23:59.111808,14.34218041,.0002089,86.3964,323.2012,90.4694,269.6741,0,U,43075,999,44371,.98421E-5,.47E-6,0
IRIDIUM 137,2017-083G,2026-06-14T11:42:15.149376,14.34217867,.0002177,86.3966,323.2886,103.5957,256.5481,0,U,43076,999,44378,.71899E-5,.4E-6,0
IRIDIUM 141,2017-083H,2026-06-14T11:33:07.159104,14.34217647,.000209,86.3957,323.1222,90.7330,269.4106,0,U,43077,999,44378,-.30201E-7,.2E-6,0
IRIDIUM 153,2017-083J,2026-06-14T10:24:15.436800,14.34217729,.0002282,86.3958,291.6223,90.0303,270.1155,0,U,43078,999,44488,.13806E-5,.24E-6,0
IRIDIUM 131,2017-083K,2026-06-14T11:14:51.086112,14.34218489,.0002211,86.3967,323.3132,91.9646,268.1803,0,U,43079,999,44371,.29504E-4,.102E-5,0
IRIDIUM 144,2018-030A,2026-06-14T10:33:23.326848,14.34218120,.0002086,86.3957,291.5488,96.2321,263.9112,0,U,43249,999,42974,.14072E-4,.59E-6,0
IRIDIUM 149,2018-030B,2026-06-14T10:42:31.420800,14.34217488,.0002135,86.3953,291.5133,93.6924,266.4516,0,U,43250,999,42976,-.87792E-5,-.5E-7,0
IRIDIUM 157,2018-030C,2026-06-14T09:29:27.408768,14.34217769,.0002202,86.3956,291.5874,93.6615,266.4833,0,U,43251,999,42973,.55685E-6,.21E-6,0
IRIDIUM 140,2018-030D,2026-06-14T09:56:51.412416,14.34217643,.0002138,86.3956,291.5920,92.9563,267.1877,0,U,43252,999,42979,-.75983E-6,.18E-6,0
IRIDIUM 145,2018-030E,2026-06-14T09:38:35.359296,14.34217666,.0001954,86.3955,291.5696,100.0094,260.1323,0,U,43253,999,42972,.161E-4,.65E-6,0
IRIDIUM 146,2018-030F,2026-06-14T10:51:39.403296,14.34217706,.0002097,86.3957,291.5607,96.2848,263.8587,0,U,43254,999,42974,.31688E-6,.21E-6,0
IRIDIUM 148,2018-030G,2026-06-14T10:05:59.436384,14.34217820,.0002247,86.3957,291.6170,96.8519,263.2932,0,U,43255,999,42977,.11773E-4,.53E-6,0
IRIDIUM 142,2018-030H,2026-06-14T09:20:19.350240,14.34218056,.0002066,86.3953,291.5193,97.7923,262.3507,0,U,43256,999,42973,.52396E-4,.167E-5,0
IRIDIUM 150,2018-030J,2026-06-14T10:15:07.415424,14.34217551,.0002017,86.3955,291.6199,93.2913,266.8514,0,U,43257,999,42976,-.97201E-6,.17E-6,0
IRIDIUM 143,2018-030K,2026-06-14T09:47:43.370304,14.34217470,.0002076,86.3961,291.7202,96.7278,263.4154,0,U,43258,999,42969,.60814E-4,.19E-5,0
IRIDIUM 161,2018-047C,2026-06-14T07:50:03.685920,14.43281564,.0002539,86.4483,89.6672,85.5993,274.5498,0,U,43478,999,42472,.79065E-4,.286E-5,0
IRIDIUM 152,2018-047D,2026-06-14T12:29:22.278336,14.34217911,.0002337,86.3959,89.4472,83.8118,276.3344,0,U,43479,999,42210,.14338E-4,.6E-6,0
IRIDIUM 147,2018-047E,2026-06-14T12:38:30.279840,14.34217537,.0002147,86.3960,89.4497,85.5443,274.5998,0,U,43480,999,42210,-.10562E-6,.19E-6,0
IRIDIUM 110,2018-047F,2026-06-14T07:46:14.335392,14.34215722,.0002693,86.3962,89.6269,81.9507,278.1994,0,U,43481,999,42206,.23501E-4,.86E-6,0
IRIDIUM 162,2018-047G,2026-06-14T12:40:30.590112,14.43280281,.0002292,86.4481,89.4740,82.7592,277.3869,0,U,43482,999,42474,.77382E-4,.28E-5,0
IRIDIUM 160,2018-061A,2026-06-14T09:49:10.504704,14.34217856,.0002274,86.3964,57.9590,85.6230,274.5226,0,U,43569,999,41297,.16649E-4,.66E-6,0
IRIDIUM 166,2018-061B,2026-06-14T10:25:42.475296,14.34217853,.0002116,86.3965,57.8990,86.1489,273.9949,0,U,43570,999,41300,.13891E-4,.59E-6,0
IRIDIUM 158,2018-061C,2026-06-14T09:40:02.498880,14.34217619,.0002214,86.3963,57.9221,81.9521,278.1926,0,U,43571,999,41296,.91372E-5,.45E-6,0
IRIDIUM 165,2018-061D,2026-06-14T10:16:34.370976,14.34217325,.0002067,86.3965,57.9579,86.2478,273.8954,0,U,43572,999,41299,.33077E-4,.112E-5,0
IRIDIUM 155,2018-061E,2026-06-14T11:02:14.478720,14.34217656,.0002126,86.3960,57.8138,82.2233,277.9204,0,U,43573,999,41296,.66251E-5,.38E-6,0
IRIDIUM 154,2018-061F,2026-06-14T10:34:50.233152,14.34219474,.0002109,86.3966,57.9553,87.3547,272.7891,0,U,43574,999,41301,.70859E-4,.218E-5,0
IRIDIUM 163,2018-061G,2026-06-14T10:07:26.004864,14.34216590,.0002264,86.3960,57.8785,83.6377,276.5077,0,U,43575,999,41298,.27533E-4,.97E-6,0
