IRIDIUM 138             
1 43071U 17083B   26165.52573023  .00000057  00000+0  13445-4 0  9993
2 43071  86.3976 322.8235 0002337  86.7921 273.3542 14.34218323443759
IRIDIUM 116             
1 43072U 17083C   26165.49401753  .00000047  00000+0  97660-5 0  9991
2 43072  86.3960 323.1275 0001929  97.3782 262.7633 14.34217935443784
IRIDIUM 130             
1 43073U 17083D   26165.46230459 -.00000016  00000+0 -12655-4 0  9990
2 43073  86.3966 323.4159 0001820  90.9495 269.1910 14.34217299443721
IRIDIUM 151             
1 43074U 17083E   26165.50670344  .00000019  00000+0 -34933-6 0  9994
2 43074  86.3963 323.1799 0002143  92.2565 267.8876 14.34217655443753
IRIDIUM 134             
1 43075U 17083F   26165.47498972  .00000047  00000+0  98421-5 0  9997
2 43075  86.3964 323.2012 0002089  90.4694 269.6741 14.34218041443713
IRIDIUM 137             
1 43076U 17083G   26165.48767534  .00000040  00000+0  71899-5 0  9995
2 43076  86.3966 323.2886 0002177 103.5957 256.5481 14.34217867443789
IRIDIUM 141             
1 43077U 17083H   26165.48133286  .00000020  00000+0 -30201-7 0  9990
2 43077  86.3957 323.1222 0002090  90.7330 269.4106 14.34217647443782
IRIDIUM 153             
1 43078U 17083J   26165.43351200  .00000024  00000+0  13806-5 0  9997
2 43078  86.3958 291.6223 0002282  90.0303 270.1155 14.34217729444886
IRIDIUM 131             
1 43079U 17083K   26165.46864683  .00000102  00000+0  29504-4 0  9993
2 43079  86.3967 323.3132 0002211  91.9646 268.1803 14.34218489443713
IRIDIUM 144             
1 43249U 18030A   26165.43985332  .00000059  00000+0  14072-4 0  9992
2 43249  86.3957 291.5488 0002086  96.2321 263.9112 14.34218120429744
IRIDIUM 149             
1 43250U 18030B   26165.44619700 -.00000005  00000+0 -87792-5 0  9991
2 43250  86.3953 291.5133 0002135  93.6924 266.4516 14.34217488429768
IRIDIUM 157             
1 43251U 18030C   26165.39545612  .00000021  00000+0  55685-6 0  9999
2 43251  86.3956 291.5874 0002202  93.6615 266.4833 14.34217769429737
IRIDIUM 140             
1 43252U 18030D   26165.41448394  .00000018  00000+0 -75983-6 0  9992
2 43252  86.3956 291.5920 0002138  92.9563 267.1877 14.34217643429795
IRIDIUM 145             
1 43253U 18030E   26165.40179814  .00000065  00000+0  16100-4 0  9995
2 43253  86.3955 291.5696 0001954 100.0094 260.1323 14.34217666429727
IRIDIUM 146             
1 43254U 18030F   26165.45253939  .00000021  00000+0  31688-6 0  9994
2 43254  86.3957 291.5607 0002097  96.2848 263.8587 14.34217706429743
IRIDIUM 148             
1 43255U 18030G   26165.42082681  .00000053  00000+0  11773-4 0  9992
2 43255  86.3957 291.6170 0002247  96.8519 263.2932 14.34217820429776
IRIDIUM 142             
1 43256U 18030H   26165.38911285  .00000167  00000+0  52396-4 0  9991
2 43256  86.3953 291.5193 0002066  97.7923 262.3507 14.34218056429731
IRIDIUM 150             
1 43257U 18030J   26165.42716916  .00000017  00000+0 -97201-6 0  9992
2 43257  86.3955 291.6199 0002017  93.2913 266.8514 14.34217551429766
IRIDIUM 143             
1 43258U 18030K   26165.40814086  .00000190  00000+0  60814-4 0  9997
2 43258  86.3961 291.7202 0002076  96.7278 263.4154 14.34217470429692
IRIDIUM 161             
1 43478U 18047C   26165.32643155  .00000286  00000+0  79065-4 0  9991
2 43478  86.4483  89.6672 0002539  85.5993 274.5498 14.43281564424723
IRIDIUM 152             
1 43479U 18047D   26165.52039674  .00000060  00000+0  14338-4 0  9991
2 43479  86.3959  89.4472 0002337  83.8118 276.3344 14.34217911422108
IRIDIUM 147             
1 43480U 18047E   26165.52673935  .00000019  00000+0 -10562-6 0  9999
2 43480  86.3960  89.4497 0002147  85.5443 274.5998 14.34217537422107
IRIDIUM 110             
1 43481U 18047F   26165.32377703  .00000086  00000+0  23501-4 0  9990
2 43481  86.3962  89.6269 0002693  81.9507 278.1994 14.34215722422061
IRIDIUM 162             
1 43482U 18047G   26165.52813183  .00000280  00000+0  77382-4 0  9992
2 43482  86.4481  89.4740 0002292  82.7592 277.3869 14.43280281424740
IRIDIUM 160             
1 43569U 18061A   26165.40914936  .00000066  00000+0  16649-4 0  9990
2 43569  86.3964  57.9590 0002274  85.6230 274.5226 14.34217856412971
IRIDIUM 166             
1 43570U 18061B   26165.43451939  .00000059  00000+0  13891-4 0  9992
2 43570  86.3965  57.8990 0002116  86.1489 273.9949 14.34217853413001
IRIDIUM 158             
1 43571U 18061C   26165.40280670  .00000045  00000+0  91372-5 0  9998
2 43571  86.3963  57.9221 0002214  81.9521 278.1926 14.34217619412963
IRIDIUM 165             
1 43572U 18061D   26165.42817559  .00000112  00000+0  33077-4 0  9995
2 43572  86.3965  57.9579 0002067  86.2478 273.8954 14.34217325412997
IRIDIUM 155             
1 43573U 18061E   26165.45988980  .00000038  00000+0  66251-5 0  9994
2 43573  86.3960  57.8138 0002126  82.2233 277.9204 14.34217656412961
IRIDIUM 154             
1 43574U 18061F   26165.44085918  .00000218  00000+0  70859-4 0  9991
2 43574  86.3966  57.9553 0002109  87.3547 272.7891 14.34219474413017
IRIDIUM 163             
1 43575U 18061G   26165.42182876  .00000097  00000+0  27533-4 0  9997
2 43575  86.3960  57.8785 0002264  83.6377 276.5077 14.34216590412989
